[{"OBJECT_NAME":"STARLINK-2543","OBJECT_ID":"2021-036C","EPOCH":"2026-03-09T06:51:55.231488","MEAN_MOTION":15.30234914,"ECCENTRICITY":0.00014043,"INCLINATION":53.1607,"RA_OF_ASC_NODE":26.2778,"ARG_OF_PERICENTER":110.4197,"MEAN_ANOMALY":249.6954,"EPHEMERIS_TYPE":0,"CLASSIFICATION_TYPE":"U","NORAD_CAT_ID":48278,"ELEMENT_SET_NO":999,"REV_AT_EPOCH":26905,"BSTAR":0.00047597044,"MEAN_MOTION_DOT":0.00013779,"MEAN_MOTION_DDOT":0},{"OBJECT_NAME":"GEISAT PRECURSOR","OBJECT_ID":"2023-084C","EPOCH":"2026-03-09T22:20:25.833120","MEAN_MOTION":15.33054389,"ECCENTRICITY":0.00051675,"INCLINATION":97.6055,"RA_OF_ASC_NODE":206.8263,"ARG_OF_PERICENTER":345.1842,"MEAN_ANOMALY":14.9247,"EPHEMERIS_TYPE":0,"CLASSIFICATION_TYPE":"U","NORAD_CAT_ID":56934,"ELEMENT_SET_NO":999,"REV_AT_EPOCH":15231,"BSTAR":0.00033857167,"MEAN_MOTION_DOT":0.00010736,"MEAN_MOTION_DDOT":0}]
